NORAD_CAT_ID,OBJECT_NAME,OBJECT_TYPE,EPOCH,MEAN_MOTION,ECCENTRICITY,INCLINATION,RA_OF_ASC_NODE,ARG_OF_PERICENTER,MEAN_ANOMALY,BSTAR,MEAN_MOTION_DOT,MEAN_MOTION_DDOT,TLE_LINE0,TLE_LINE1,TLE_LINE2,SEMIMAJOR_AXIS,PERIOD,APOGEE,PERIGEE,DECAYED
53712.0,STARLINK-4683,PAYLOAD,2022-12-24 18:42:31,15.07212668,0.00015,53.2194,105.0256,60.708,299.4061,-4.1091e-05,-9.09e-06,0.0,0 STARLINK-4683,1 53712U 22107N   22358.77953517 -.00000909  00000-0 -41091-4 0  9993,2 53712  53.2194 105.0256 0001500  60.7080 299.4061 15.07212668 17737,6922.859,95.541,545.762,543.686,0.0
53712.0,STARLINK-4683,PAYLOAD,2022-12-25 13:48:24,15.07199296,0.0001496,53.2196,101.4618,63.4612,296.6533,3.6037e-05,2.65e-06,0.0,0 STARLINK-4683,1 53712U 22107N   22359.57528418  .00000265  00000-0  36037-4 0  9997,2 53712  53.2196 101.4618 0001496  63.4612 296.6533 15.07199296 17392,6922.9,95.541,545.8009999999998,543.729,0.0
53712.0,STARLINK-4683,PAYLOAD,2022-12-25 16:59:23,15.0719629,0.0001484,53.2195,100.8689,57.0443,303.0691,-6.8152e-05,-1.32e-05,0.0,0 STARLINK-4683,1 53712U 22107N   22359.70791399 -.00001320  00000-0 -68152-4 0  9990,2 53712  53.2195 100.8689 0001484  57.0443 303.0691 15.07196290 17872,6922.909000000002,95.542,545.8009999999998,543.747,0.0
53712.0,STARLINK-4683,PAYLOAD,2022-12-26 07:18:47,15.07198393,0.0001223,53.2201,98.197,51.8449,308.2653,-4.8139e-05,-1.016e-05,0.0,0 STARLINK-4683,1 53712U 22107N   22360.30471938 -.00001016  00000-0 -48139-4 0  9997,2 53712  53.2201  98.1970 0001223  51.8449 308.2653 15.07198393 17962,6922.903,95.542,545.614,543.9209999999998,0.0
53712.0,STARLINK-4683,PAYLOAD,2022-12-26 10:29:46,15.07202883,0.0001483,53.2203,97.6029,62.8205,297.2937,-0.00013508,-2.339e-05,0.0,0 STARLINK-4683,1 53712U 22107N   22360.43734469 -.00002339  00000-0 -13508-3 0  9992,2 53712  53.2203  97.6029 0001483  62.8205 297.2937 15.07202883 17987,6922.889,95.541,545.781,543.727,0.0
53712.0,STARLINK-4683,PAYLOAD,2022-12-26 23:13:40,15.07208972,0.0001386999999999,53.2205,95.2277,54.892,305.2202,-6.6932e-05,-1.302e-05,0.0,0 STARLINK-4683,1 53712U 22107N   22360.96783445 -.00001302  00000-0 -66932-4 0  9997,2 53712  53.2205  95.2277 0001387  54.8920 305.2202 15.07208972 17605,6922.87,95.541,545.695,543.775,0.0
53712.0,STARLINK-4683,PAYLOAD,2022-12-27 07:11:07,15.07204301,0.0001543,53.2182,93.7425,45.6486,314.4632,0.00014095,1.863e-05,0.0,0 STARLINK-4683,1 53712U 22107N   22361.29938894  .00001863  00000-0  14095-3 0  9996,2 53712  53.2182  93.7425 0001543  45.6486 314.4632 15.07204301 18114,6922.885,95.541,545.818,543.681,0.0
53712.0,STARLINK-4683,PAYLOAD,2022-12-27 13:33:03,15.0721364,0.0001535,53.2197,92.5552,56.2899,303.8239,0.00021411,2.978e-05,0.0,0 STARLINK-4683,1 53712U 22107N   22361.56462723  .00002978  00000-0  21411-3 0  9997,2 53712  53.2197  92.5552 0001535  56.2899 303.8239 15.07213640 17698,6922.856,95.541,545.784,543.658,0.0
53712.0,STARLINK-4683,PAYLOAD,2022-12-28 07:03:26,15.07210298,0.0001618,53.2191,89.2879,64.3861,295.7298,0.00010485,1.313e-05,0.0,0 STARLINK-4683,1 53712U 22107N   22362.29405994  .00001313  00000-0  10485-3 0  9996,2 53712  53.2191  89.2879 0001618  64.3861 295.7298 15.07210298 17801,6922.866,95.541,545.851,543.611,0.0
53712.0,STARLINK-4683,PAYLOAD,2022-12-28 15:00:54,15.07194338,0.0001618,53.2205,87.8051,47.2108,312.9019,-2.8207e-05,-7.13e-06,0.0,0 STARLINK-4683,1 53712U 22107N   22362.62563411 -.00000713  00000-0 -28207-4 0  9999,2 53712  53.2205  87.8051 0001618  47.2108 312.9019 15.07194338 17851,6922.915,95.542,545.9,543.66,0.0
53712.0,STARLINK-4683,PAYLOAD,2022-12-29 11:42:17,15.07195859,0.0001836,53.2201,83.9454,58.9598,301.1573,-0.00020352,-3.379e-05,0.0,0 STARLINK-4683,1 53712U 22107N   22363.48769959 -.00003379  00000-0 -20352-3 0  9992,2 53712  53.2201  83.9454 0001836  58.9598 301.1573 15.07195859 18445,6922.91,95.542,546.0459999999998,543.504,0.0
53712.0,STARLINK-4683,PAYLOAD,2022-12-30 05:12:40,15.07198692,0.0001538,53.2193,80.6759,68.3399,291.7756,-0.00012574,-2.197e-05,0.0,0 STARLINK-4683,1 53712U 22107N   22364.21712967 -.00002197  00000-0 -12574-3 0  9995,2 53712  53.2193  80.6759 0001538  68.3399 291.7756 15.07198692 18096,6922.901999999999,95.541,545.832,543.702,0.0
53712.0,STARLINK-4683,PAYLOAD,2022-12-30 11:34:37,15.07194693,0.0001419,53.2197,79.491,53.012,307.1001,2.1769e-05,4.8e-07,0.0,0 STARLINK-4683,1 53712U 22107N   22364.48237525  .00000048  00000-0  21769-4 0  9994,2 53712  53.2197  79.4910 0001419  53.0120 307.1001 15.07194693 18593,6922.9140000000025,95.542,545.761,543.797,0.0
53712.0,STARLINK-4683,PAYLOAD,2022-12-30 14:45:35,15.07198912,0.0001624,53.2179,78.8973,39.8558,320.2553,0.00010176,1.266e-05,0.0,0 STARLINK-4683,1 53712U 22107N   22364.61499452  .00001266  00000-0  10176-3 0  9990,2 53712  53.2179  78.8973 0001624  39.8558 320.2553 15.07198912 18158,6922.901,95.541,545.89,543.6419999999998,0.0
53712.0,STARLINK-4683,PAYLOAD,2022-12-31 05:04:58,15.07211197,0.0001764,53.2205,76.2255,51.7092,308.4058,0.00026465,3.748e-05,0.0,0 STARLINK-4683,1 53712U 22107N   22365.21178745  .00003748  00000-0  26465-3 0  9991,2 53712  53.2205  76.2255 0001764  51.7092 308.4058 15.07211197 18243,6922.863,95.541,545.95,543.507,0.0
53712.0,STARLINK-4683,PAYLOAD,2022-12-31 11:26:55,15.07215784,0.0001709,53.2194,75.03699999999998,54.5548,305.5603,0.00029668,4.237e-05,0.0,0 STARLINK-4683,1 53712U 22107N   22365.47702934  .00004237  00000-0  29668-3 0  9994,2 53712  53.2194  75.0370 0001709  54.5548 305.5603 15.07215784 18746,6922.849,95.54,545.898,543.531,0.0
53712.0,STARLINK-4683,PAYLOAD,2022-12-31 14:37:53,15.07216095,0.0001761,53.2201,74.4441,50.0906,310.024,0.00027943,3.974e-05,0.0,0 STARLINK-4683,1 53712U 22107N   22365.60965271  .00003974  00000-0  27943-3 0  9995,2 53712  53.2201  74.4441 0001761  50.0906 310.0240 15.07216095 18760,6922.848000000001,95.54,545.933,543.494,0.0
53712.0,STARLINK-4683,PAYLOAD,2023-01-01 04:57:19,15.07204612,0.0001452,53.2197,71.771,54.9134,305.1993,2.0985e-06,-2.51e-06,0.0,0 STARLINK-4683,1 53712U 22107N   23001.20647552 -.00000251  00000-0  20985-5 0  9995,2 53712  53.2197  71.7710 0001452  54.9134 305.1993 15.07204612 18397,6922.884,95.541,545.754,543.743,0.0
53712.0,STARLINK-4683,PAYLOAD,2023-01-01 14:30:16,15.07194219,0.0001641,53.22,69.9894,48.5858,311.5274,-0.0002319,-3.811e-05,0.0,0 STARLINK-4683,1 53712U 22107N   23001.60436328 -.00003811  00000-0 -23190-3 0  9991,2 53712  53.2200  69.9894 0001641  48.5858 311.5274 15.07194219 18457,6922.915,95.542,545.9169999999998,543.644,0.0
53712.0,STARLINK-4683,PAYLOAD,2023-01-01 20:52:13,15.0720073,0.0001634,53.22,68.8027,49.1454,310.9679,-0.00018212,-3.054e-05,0.0,0 STARLINK-4683,1 53712U 22107N   23001.86960591 -.00003054  00000-0 -18212-3 0  9991,2 53712  53.2200  68.8027 0001634  49.1454 310.9679 15.07200730 18957,6922.896,95.541,545.8919999999998,543.629,0.0
53712.0,STARLINK-4683,PAYLOAD,2023-01-02 04:49:40,15.07209508,0.0001595,53.2193,67.3173,45.9361,314.1761,-0.00015499,-2.642e-05,0.0,0 STARLINK-4683,1 53712U 22107N   23002.20115850 -.00002642  00000-0 -15499-3 0  9996,2 53712  53.2193  67.3173 0001595  45.9361 314.1761 15.07209508 18546,6922.869000000002,95.541,545.8380000000002,543.629,0.0
53712.0,STARLINK-4683,PAYLOAD,2023-01-02 14:22:35,15.07215093,0.0001621999999999,53.2195,65.5362,47.5468,312.566,-8.246100000000001e-05,-1.539e-05,0.0,0 STARLINK-4683,1 53712U 22107N   23002.59902257 -.00001539  00000-0 -82461-4 0  9991,2 53712  53.2195  65.5362 0001622  47.5468 312.5660 15.07215093 18608,6922.852,95.54,545.839,543.594,0.0
53712.0,STARLINK-4683,PAYLOAD,2023-01-02 20:44:33,15.07208701,0.0001626,53.2191,64.3484,46.1623,313.9503,-0.00014599,-2.505e-05,0.0,0 STARLINK-4683,1 53712U 22107N   23002.86427575 -.00002505  00000-0 -14599-3 0  9996,2 53712  53.2191  64.3484 0001626  46.1623 313.9503 15.07208701 18641,6922.871,95.541,545.862,543.61,0.0
53712.0,STARLINK-4683,PAYLOAD,2023-01-03 11:03:58,15.07184313,0.0001608,53.2191,61.6759,43.66,316.4519,0.00011533,1.472e-05,0.0,0 STARLINK-4683,1 53712U 22107N   23003.46109384  .00001472  00000-0  11533-3 0  9993,2 53712  53.2191  61.6759 0001608  43.6600 316.4519 15.07184313 18730,6922.946,95.542,545.924,543.698,0.0
53712.0,STARLINK-4683,PAYLOAD,2023-01-04 10:56:18,15.07206505,0.0001714,53.2199,57.2226,42.7307,317.3817,7.0529e-05,7.9e-06,0.0,0 STARLINK-4683,1 53712U 22107N   23004.45576546  .00000790  00000-0  70529-4 0  9994,2 53712  53.2199  57.2226 0001714  42.7307 317.3817 15.07206505 18885,6922.878000000002,95.541,545.929,543.556,0.0
53712.0,STARLINK-4683,PAYLOAD,2023-01-04 20:29:12,15.07223686,0.000178,53.2201,55.4412,50.0373,310.0774,0.00010148,1.262e-05,0.0,0 STARLINK-4683,1 53712U 22107N   23004.85362231  .00001262  00000-0  10148-3 0  9997,2 53712  53.2201  55.4412 0001780  50.0373 310.0774 15.07223686 18942,6922.825,95.54,545.922,543.4580000000002,0.0
53712.0,STARLINK-4683,PAYLOAD,2023-01-05 12:24:06,15.07217397,0.0001847,53.219,52.4713,47.2392,312.8755,0.00016047,2.161e-05,0.0,0 STARLINK-4683,1 53712U 22107N   23005.51673877  .00002161  00000-0  16047-3 0  9995,2 53712  53.2190  52.4713 0001847  47.2392 312.8755 15.07217397 19046,6922.844,95.54,545.988,543.431,0.0
53712.0,STARLINK-4683,PAYLOAD,2023-01-06 12:16:28,15.07193913,0.0001508,53.2208,48.0159,50.7815,309.331,-0.00022983,-3.779e-05,0.0,0 STARLINK-4683,1 53712U 22107N   23006.51144258 -.00003779  00000-0 -22983-3 0  9996,2 53712  53.2208  48.0159 0001508  50.7815 309.3310 15.07193913 19195,6922.916,95.542,545.825,543.737,0.0
53712.0,STARLINK-4683,PAYLOAD,2023-01-06 13:51:58,15.07191714,0.0001284,53.219,47.7192,55.7503,304.361,-0.00023133,-3.801e-05,0.0,0 STARLINK-4683,1 53712U 22107N   23006.57775631 -.00003801  00000-0 -23133-3 0  9991,2 53712  53.2190  47.7192 0001284  55.7503 304.3610 15.07191714 19665,6922.923000000002,95.542,545.677,543.899,0.0
